NORAD_CAT_ID,OBJECT_NAME,OBJECT_TYPE,EPOCH,MEAN_MOTION,ECCENTRICITY,INCLINATION,RA_OF_ASC_NODE,ARG_OF_PERICENTER,MEAN_ANOMALY,BSTAR,MEAN_MOTION_DOT,MEAN_MOTION_DDOT,TLE_LINE0,TLE_LINE1,TLE_LINE2,SEMIMAJOR_AXIS,PERIOD,APOGEE,PERIGEE,DECAYED
53567.0,STARLINK-4585,PAYLOAD,2024-04-22 09:01:28,15.08829598,0.0002283,53.2162,255.2094,96.3781,263.7471,-4.3626e-05,-9.82e-06,0.0,0 STARLINK-4585,1 53567U 22101AS  24113.37602265 -.00000982  00000-0 -43626-4 0  9990,2 53567  53.2162 255.2094 0002283  96.3781 263.7471 15.08829598 92830,6917.912,95.438,541.357,538.198,0.0
53567.0,STARLINK-4585,PAYLOAD,2024-04-22 16:58:23,15.08841034,0.00015,53.2175,253.721,95.2523,264.864,8.3143e-05,1.036e-05,0.0,0 STARLINK-4585,1 53567U 22101AS  24113.70721880  .00001036  00000-0  83143-4 0  9999,2 53567  53.2175 253.7210 0001500  95.2523 264.8640 15.08841034 92884,6917.877,95.437,540.78,538.705,0.0
53567.0,STARLINK-4585,PAYLOAD,2024-04-23 13:38:25,15.08838642,0.0001583,53.2179,249.8578,77.3133,282.8036,5.4747e-05,5.83e-06,0.0,0 STARLINK-4585,1 53567U 22101AS  24114.56834792  .00000583  00000-0  54747-4 0  9995,2 53567  53.2179 249.8578 0001583  77.3133 282.8036 15.08838642 93016,6917.885,95.438,540.845,538.654,0.0
53567.0,STARLINK-4585,PAYLOAD,2024-04-23 15:13:48,15.0884266,0.0002354,53.2194,249.5609,54.0237,306.0973,7.5889e-05,9.2e-06,0.0,0 STARLINK-4585,1 53567U 22101AS  24114.63458674  .00000920  00000-0  75889-4 0  9999,2 53567  53.2194 249.5609 0002354  54.0237 306.0973 15.08842660 93024,6917.872,95.437,541.366,538.109,0.0
53567.0,STARLINK-4585,PAYLOAD,2024-04-24 08:43:02,15.08837282,0.0002182,53.2185,246.2943,57.0875,303.0327,0.00024476,3.609e-05,0.0,0 STARLINK-4585,1 53567U 22101AS  24115.36322660  .00003609  00000-0  24476-3 0  9997,2 53567  53.2185 246.2943 0002182  57.0875 303.0327 15.08837282 93135,6917.889,95.438,541.263,538.244,0.0
53567.0,STARLINK-4585,PAYLOAD,2024-04-24 13:29:12,15.08838092,0.0002077,53.2184,245.4011,53.5177,306.6006,0.00019594,2.831e-05,0.0,0 STARLINK-4585,1 53567U 22101AS  24115.56194776  .00002831  00000-0  19594-3 0  9995,2 53567  53.2184 245.4011 0002077  53.5177 306.6006 15.08838092 93166,6917.886,95.438,541.188,538.314,0.0
53567.0,STARLINK-4585,PAYLOAD,2024-04-24 15:04:35,15.08839851,0.0002337,53.2184,245.1039,47.8953,312.2237,0.0002108,3.068e-05,0.0,0 STARLINK-4585,1 53567U 22101AS  24115.62818715  .00003068  00000-0  21080-3 0  9994,2 53567  53.2184 245.1039 0002337  47.8953 312.2237 15.08839851 93174,6917.881,95.438,541.363,538.129,0.0
53567.0,STARLINK-4585,PAYLOAD,2024-04-25 13:19:56,15.08889451,0.0001794,53.2192,240.941,83.1651,276.9546,0.00041618,6.351e-05,0.0,0 STARLINK-4585,1 53567U 22101AS  24116.55551074  .00006351  00000-0  41618-3 0  9996,2 53567  53.2192 240.9410 0001794  83.1651 276.9546 15.08889451 93319,6917.729,95.434,540.835,538.353,0.0
53567.0,STARLINK-4585,PAYLOAD,2024-04-25 14:55:18,15.08897322,0.0001834,53.2179,240.6434,95.2383,264.8818,0.00047026,7.216e-05,0.0,0 STARLINK-4585,1 53567U 22101AS  24116.62174196  .00007216  00000-0  47026-3 0  9990,2 53567  53.2179 240.6434 0001834  95.2383 264.8818 15.08897322 93323,6917.705,95.434,540.839,538.301,0.0
53567.0,STARLINK-4585,PAYLOAD,2024-04-26 13:10:45,15.08833151,0.0001273,53.2172,236.4719,105.3065,254.8068,-0.00020027,-3.473e-05,0.0,0 STARLINK-4585,1 53567U 22101AS  24117.54913808 -.00003473  00000-0 -20027-3 0  9998,2 53567  53.2172 236.4719 0001273 105.3065 254.8068 15.08833151 93463,6917.901,95.438,540.647,538.886,0.0
53567.0,STARLINK-4585,PAYLOAD,2024-04-26 14:46:09,15.08823557,0.0001397,53.2171,236.1767,90.1707,269.9445,-0.00025249,-4.302e-05,0.0,0 STARLINK-4585,1 53567U 22101AS  24117.61538617 -.00004302  00000-0 -25249-3 0  9990,2 53567  53.2171 236.1767 0001397  90.1707 269.9445 15.08823557 93479,6917.931,95.439,540.762,538.829,0.0
53567.0,STARLINK-4585,PAYLOAD,2024-04-27 13:01:32,15.08865127,0.0001774,53.2174,232.0134,117.6925,242.4248,-0.00037823,-6.307e-05,0.0,0 STARLINK-4585,1 53567U 22101AS  24118.54273161 -.00006307  00000-0 -37823-3 0  9991,2 53567  53.2174 232.0134 0001774 117.6925 242.4248 15.08865127 93613,6917.804,95.436,540.896,538.441,0.0
53567.0,STARLINK-4585,PAYLOAD,2024-04-27 14:36:54,15.08866049,0.000152,53.2164,231.7166,97.3399,262.7765,-0.00031948,-5.373e-05,0.0,0 STARLINK-4585,1 53567U 22101AS  24118.60896924 -.00005373  00000-0 -31948-3 0  9990,2 53567  53.2164 231.7166 0001520  97.3399 262.7765 15.08866049 93625,6917.801,95.436,540.717,538.614,0.0
53567.0,STARLINK-4585,PAYLOAD,2024-04-28 12:52:21,15.08799881,0.0001746,53.2189,227.5564,113.5318,246.5858,0.00010539,1.388e-05,0.0,0 STARLINK-4585,1 53567U 22101AS  24119.53636212  .00001388  00000-0  10539-3 0  9998,2 53567  53.2189 227.5564 0001746 113.5318 246.5858 15.08799881 93766,6918.003,95.44,541.076,538.66,0.0
53567.0,STARLINK-4585,PAYLOAD,2024-04-28 14:27:44,15.08802511,0.0001595,53.2178,227.2593,116.2288,243.8868,0.00012961,1.773e-05,0.0,0 STARLINK-4585,1 53567U 22101AS  24119.60260083  .00001773  00000-0  12961-3 0  9994,2 53567  53.2178 227.2593 0001595 116.2288 243.8868 15.08802511 93778,6917.995,95.44,540.963,538.757,0.0
53567.0,STARLINK-4585,PAYLOAD,2024-04-29 00:00:03,15.08818373,0.0001751,53.2197,225.4743,109.1453,250.9729,0.000144,2.003e-05,0.0,0 STARLINK-4585,1 53567U 22101AS  24120.00003803  .00002003  00000-0  14400-3 0  9992,2 53567  53.2197 225.4743 0001751 109.1453 250.9729 15.08818373 93830,6917.946,95.439,541.023,538.6,0.0
53567.0,STARLINK-4585,PAYLOAD,2024-04-29 12:43:07,15.08839069,0.0001515,53.2185,223.095,104.9833,255.1327,0.00014303,1.989e-05,0.0,0 STARLINK-4585,1 53567U 22101AS  24120.52995109  .00001989  00000-0  14303-3 0  9992,2 53567  53.2185 223.0950 0001515 104.9833 255.1327 15.08839069 93919,6917.883,95.438,540.796,538.7,0.0
53567.0,STARLINK-4585,PAYLOAD,2024-04-29 14:18:30,15.08841432,0.0001464,53.2184,222.7976,103.4323,256.6832,0.00017676,2.526e-05,0.0,0 STARLINK-4585,1 53567U 22101AS  24120.59618948  .00002526  00000-0  17676-3 0  9996,2 53567  53.2184 222.7976 0001464 103.4323 256.6832 15.08841432 93928,6917.876,95.437,540.754,538.728,0.0
53567.0,STARLINK-4585,PAYLOAD,2024-04-30 14:09:18,15.08844988,0.000129,53.2155,218.3362,106.4021,253.7113,0.00028349,4.227e-05,0.0,0 STARLINK-4585,1 53567U 22101AS  24121.58979306  .00004227  00000-0  28349-3 0  9993,2 53567  53.2155 218.3362 0001290 106.4021 253.7113 15.08844988 94077,6917.865,95.437,540.623,538.838,0.0
53567.0,STARLINK-4585,PAYLOAD,2024-05-01 12:24:41,15.08848489,0.0001332,53.2149,214.1724,98.6117,261.5026,0.00010611,1.402e-05,0.0,0 STARLINK-4585,1 53567U 22101AS  24122.51714938  .00001402  00000-0  10611-3 0  9990,2 53567  53.2149 214.1724 0001332  98.6117 261.5026 15.08848489 94217,6917.854,95.437,540.641,538.798,0.0
53567.0,STARLINK-4585,PAYLOAD,2024-05-01 23:32:23,15.0884716,0.0001125,53.2149,212.09,104.5127,255.599,4.9195e-05,4.95e-06,0.0,0 STARLINK-4585,1 53567U 22101AS  24122.98082767  .00000495  00000-0  49195-4 0  9990,2 53567  53.2149 212.0900 0001125 104.5127 255.5990 15.08847160 94283,6917.859,95.437,540.502,538.945,0.0
53567.0,STARLINK-4585,PAYLOAD,2024-05-02 12:15:29,15.08841734,0.0001433,53.2158,209.7112,100.307,259.8084,-4.0752e-05,-9.37e-06,0.0,0 STARLINK-4585,1 53567U 22101AS  24123.51075287 -.00000937  00000-0 -40752-4 0  9992,2 53567  53.2158 209.7112 0001433 100.3070 259.8084 15.08841734 94365,6917.875,95.437,540.731,538.749,0.0
53567.0,STARLINK-4585,PAYLOAD,2024-05-03 12:06:14,15.08858846,0.0001508,53.216,205.2503,96.2377,263.8787,0.00012875,1.763e-05,0.0,0 STARLINK-4585,1 53567U 22101AS  24124.50433427  .00001763  00000-0  12875-3 0  9996,2 53567  53.2160 205.2503 0001508  96.2377 263.8787 15.08858846 94513,6917.823,95.436,540.731,538.645,0.0
53567.0,STARLINK-4585,PAYLOAD,2024-05-03 15:17:00,15.08860167,0.0001699,53.2151,204.6554,95.31,264.8086,0.00024349,3.591e-05,0.0,0 STARLINK-4585,1 53567U 22101AS  24124.63681649  .00003591  00000-0  24349-3 0  9991,2 53567  53.2151 204.6554 0001699  95.3100 264.8086 15.08860167 94531,6917.819,95.436,540.859,538.508,0.0
53567.0,STARLINK-4585,PAYLOAD,2024-05-04 10:21:40,15.08824761,0.0001454,53.2153,201.0871,102.3659,257.7496,-0.00017045,-2.998e-05,0.0,0 STARLINK-4585,1 53567U 22101AS  24125.43171674 -.00002998  00000-0 -17045-3 0  9999,2 53567  53.2153 201.0871 0001454 102.3659 257.7496 15.08824761 94652,6917.927,95.439,540.798,538.786,0.0
53567.0,STARLINK-4585,PAYLOAD,2024-05-05 05:26:18,15.08834086,0.0001192,53.2149,197.5199,97.8055,262.3072,0.00016052,2.267e-05,0.0,0 STARLINK-4585,1 53567U 22101AS  24126.22659982  .00002267  00000-0  16052-3 0  9994,2 53567  53.2149 197.5199 0001192  97.8055 262.3072 15.08834086 94772,6917.898,95.438,540.588,538.939,0.0
53567.0,STARLINK-4585,PAYLOAD,2024-05-05 10:12:27,15.08838824,0.0001336,53.2154,196.6282,104.4387,255.6753,0.00068031,0.00010555,0.0,0 STARLINK-4585,1 53567U 22101AS  24126.42532214  .00010555  00000-0  68031-3 0  9997,2 53567  53.2154 196.6282 0001336 104.4387 255.6753 15.08838824 94803,6917.884,95.438,540.673,538.825,0.0
53567.0,STARLINK-4585,PAYLOAD,2024-05-05 21:20:09,15.08848819,0.0001241,53.215,194.5471,97.7482,262.3651,0.0007428,0.00011556,0.0,0 STARLINK-4585,1 53567U 22101AS  24126.88900169  .00011556  00000-0  74280-3 0  9990,2 53567  53.2150 194.5471 0001241  97.7482 262.3651 15.08848819 94875,6917.853,95.437,540.577,538.86,0.0
53567.0,STARLINK-4585,PAYLOAD,2024-05-06 11:38:37,15.08854454,0.0001509,53.2162,191.8722,106.5856,253.5302,0.00060665,9.384e-05,0.0,0 STARLINK-4585,1 53567U 22101AS  24127.48515941  .00009384  00000-0  60665-3 0  9995,2 53567  53.2162 191.8722 0001509 106.5856 253.5302 15.08854454 94965,6917.836,95.437,540.745,538.657,0.0
53567.0,STARLINK-4585,PAYLOAD,2024-05-06 21:10:56,15.0885457,0.0001408,53.2159,190.0881,95.9977,264.1176,0.00043529,6.649e-05,0.0,0 STARLINK-4585,1 53567U 22101AS  24127.88259700  .00006649  00000-0  43529-3 0  9998,2 53567  53.2159 190.0881 0001408  95.9977 264.1176 15.08854570 95025,6917.836,95.437,540.675,538.727,0.0
